[{"OBJECT_NAME":"STARLINK-30193","OBJECT_ID":"2023-102L","EPOCH":"2024-07-17T05:34:49.028160","MEAN_MOTION":15.02535106,"ECCENTRICITY":0.0001243,"INCLINATION":43.0019,"RA_OF_ASC_NODE":271.4501,"ARG_OF_PERICENTER":255.7617,"MEAN_ANOMALY":104.3087,"EPHEMERIS_TYPE":0,"CLASSIFICATION_TYPE":"U","NORAD_CAT_ID":57414,"ELEMENT_SET_NO":999,"REV_AT_EPOCH":5591,"BSTAR":-1.6937e-6,"MEAN_MOTION_DOT":-2.26e-6,"MEAN_MOTION_DDOT":0},{"OBJECT_NAME":"STARLINK-30208","OBJECT_ID":"2023-102M","EPOCH":"2024-07-17T05:25:13.706976","MEAN_MOTION":15.02534805,"ECCENTRICITY":0.0001296,"INCLINATION":43.0025,"RA_OF_ASC_NODE":271.4027,"ARG_OF_PERICENTER":267.0006,"MEAN_ANOMALY":93.0688,"EPHEMERIS_TYPE":0,"CLASSIFICATION_TYPE":"U","NORAD_CAT_ID":57415,"ELEMENT_SET_NO":999,"REV_AT_EPOCH":5570,"BSTAR":1.6041e-5,"MEAN_MOTION_DOT":1.3e-7,"MEAN_MOTION_DDOT":0},{"OBJECT_NAME":"STARLINK-30224","OBJECT_ID":"2023-102N","EPOCH":"2024-07-16T07:00:14.868864","MEAN_MOTION":15.02525527,"ECCENTRICITY":0.0001194,"INCLINATION":43.0026,"RA_OF_ASC_NODE":276.4349,"ARG_OF_PERICENTER":276.9735,"MEAN_ANOMALY":83.0972,"EPHEMERIS_TYPE":0,"CLASSIFICATION_TYPE":"U","NORAD_CAT_ID":57416,"ELEMENT_SET_NO":999,"REV_AT_EPOCH":5577,"BSTAR":0.00020323,"MEAN_MOTION_DOT":2.542e-5,"MEAN_MOTION_DDOT":0},{"OBJECT_NAME":"STARLINK-30043","OBJECT_ID":"2023-102P","EPOCH":"2024-07-16T06:50:39.066432","MEAN_MOTION":15.02534075,"ECCENTRICITY":0.0001191,"INCLINATION":43.001,"RA_OF_ASC_NODE":276.3819,"ARG_OF_PERICENTER":269.2576,"MEAN_ANOMALY":90.813,"EPHEMERIS_TYPE":0,"CLASSIFICATION_TYPE":"U","NORAD_CAT_ID":57417,"ELEMENT_SET_NO":999,"REV_AT_EPOCH":5577,"BSTAR":4.9556e-5,"MEAN_MOTION_DOT":4.66e-6,"MEAN_MOTION_DDOT":0},{"OBJECT_NAME":"STARLINK-30221","OBJECT_ID":"2023-102Q","EPOCH":"2024-07-17T05:15:38.041920","MEAN_MOTION":15.02541399,"ECCENTRICITY":0.0001389,"INCLINATION":43.0027,"RA_OF_ASC_NODE":271.3527,"ARG_OF_PERICENTER":269.512,"MEAN_ANOMALY":90.5563,"EPHEMERIS_TYPE":0,"CLASSIFICATION_TYPE":"U","NORAD_CAT_ID":57418,"ELEMENT_SET_NO":999,"REV_AT_EPOCH":5591,"BSTAR":0.00012181,"MEAN_MOTION_DOT":1.442e-5,"MEAN_MOTION_DDOT":0},{"OBJECT_NAME":"STARLINK-30189","OBJECT_ID":"2023-105A","EPOCH":"2024-07-17T06:03:14.575392","MEAN_MOTION":15.0252812,"ECCENTRICITY":0.0001325,"INCLINATION":43.0031,"RA_OF_ASC_NODE":284.7399,"ARG_OF_PERICENTER":261.7438,"MEAN_ANOMALY":98.3254,"EPHEMERIS_TYPE":0,"CLASSIFICATION_TYPE":"U","NORAD_CAT_ID":57430,"ELEMENT_SET_NO":999,"REV_AT_EPOCH":5519,"BSTAR":0.00014211,"MEAN_MOTION_DOT":1.716e-5,"MEAN_MOTION_DDOT":0},{"OBJECT_NAME":"STARLINK-30170","OBJECT_ID":"2023-105B","EPOCH":"2024-07-17T05:58:28.612128","MEAN_MOTION":15.0253167,"ECCENTRICITY":0.0001115,"INCLINATION":43.001,"RA_OF_ASC_NODE":284.7122,"ARG_OF_PERICENTER":269.6447,"MEAN_ANOMALY":90.4268,"EPHEMERIS_TYPE":0,"CLASSIFICATION_TYPE":"U","NORAD_CAT_ID":57431,"ELEMENT_SET_NO":999,"REV_AT_EPOCH":5524,"BSTAR":-4.1446e-5,"MEAN_MOTION_DOT":-7.63e-6,"MEAN_MOTION_DDOT":0},{"OBJECT_NAME":"STARLINK-30188","OBJECT_ID":"2023-105C","EPOCH":"2024-07-17T05:53:38.119776","MEAN_MOTION":15.02546142,"ECCENTRICITY":0.000113,"INCLINATION":43.0023,"RA_OF_ASC_NODE":284.6888,"ARG_OF_PERICENTER":272.3562,"MEAN_ANOMALY":87.7151,"EPHEMERIS_TYPE":0,"CLASSIFICATION_TYPE":"U","NORAD_CAT_ID":57432,"ELEMENT_SET_NO":999,"REV_AT_EPOCH":5520,"BSTAR":0.00021975,"MEAN_MOTION_DOT":2.767e-5,"MEAN_MOTION_DDOT":0},{"OBJECT_NAME":"STARLINK-30105","OBJECT_ID":"2023-105D","EPOCH":"2024-07-17T02:00:52.310592","MEAN_MOTION":15.40684673,"ECCENTRICITY":0.0001446,"INCLINATION":42.9993,"RA_OF_ASC_NODE":211.0393,"ARG_OF_PERICENTER":272.4349,"MEAN_ANOMALY":87.6342,"EPHEMERIS_TYPE":0,"CLASSIFICATION_TYPE":"U","NORAD_CAT_ID":57433,"ELEMENT_SET_NO":999,"REV_AT_EPOCH":5615,"BSTAR":9.7246e-5,"MEAN_MOTION_DOT":3.759e-5,"MEAN_MOTION_DDOT":0},{"OBJECT_NAME":"STARLINK-30102","OBJECT_ID":"2023-105E","EPOCH":"2024-07-17T05:44:03.763680","MEAN_MOTION":15.02542275,"ECCENTRICITY":8.97e-5,"INCLINATION":42.9962,"RA_OF_ASC_NODE":284.6343,"ARG_OF_PERICENTER":342.884,"MEAN_ANOMALY":17.1972,"EPHEMERIS_TYPE":0,"CLASSIFICATION_TYPE":"U","NORAD_CAT_ID":57434,"ELEMENT_SET_NO":999,"REV_AT_EPOCH":5522,"BSTAR":-2.0118e-6,"MEAN_MOTION_DOT":-2.31e-6,"MEAN_MOTION_DDOT":0},{"OBJECT_NAME":"STARLINK-30180","OBJECT_ID":"2023-105F","EPOCH":"2024-07-16T10:40:07.413600","MEAN_MOTION":15.02536905,"ECCENTRICITY":0.0001517,"INCLINATION":43.0024,"RA_OF_ASC_NODE":288.993,"ARG_OF_PERICENTER":275.5427,"MEAN_ANOMALY":84.5242,"EPHEMERIS_TYPE":0,"CLASSIFICATION_TYPE":"U","NORAD_CAT_ID":57435,"ELEMENT_SET_NO":999,"REV_AT_EPOCH":5517,"BSTAR":0.00014991,"MEAN_MOTION_DOT":1.822e-5,"MEAN_MOTION_DDOT":0}]
