STARLINK-30193          
1 57414U 23102L   24199.23251190 -.00000226  00000+0 -16937-5 0  9999
2 57414  43.0019 271.4501 0001243 255.7617 104.3087 15.02535106 55914
STARLINK-30208          
1 57415U 23102M   24199.22585309  .00000013  00000+0  16041-4 0  9998
2 57415  43.0025 271.4027 0001296 267.0006  93.0688 15.02534805 55704
STARLINK-30224          
1 57416U 23102N   24198.29183876  .00002542  00000+0  20323-3 0  9994
2 57416  43.0026 276.4349 0001194 276.9735  83.0972 15.02525527 55776
STARLINK-30043          
1 57417U 23102P   24198.28517438  .00000466  00000+0  49556-4 0  9992
2 57417  43.0010 276.3819 0001191 269.2576  90.8130 15.02534075 55776
STARLINK-30221          
1 57418U 23102Q   24199.21919030  .00001442  00000+0  12181-3 0  9999
2 57418  43.0027 271.3527 0001389 269.5120  90.5563 15.02541399 55913
STARLINK-30189          
1 57430U 23105A   24199.25225203  .00001716  00000+0  14211-3 0  9992
2 57430  43.0031 284.7399 0001325 261.7438  98.3254 15.02528120 55193
STARLINK-30170          
1 57431U 23105B   24199.24894227 -.00000763  00000+0 -41446-4 0  9994
2 57431  43.0010 284.7122 0001115 269.6447  90.4268 15.02531670 55247
STARLINK-30188          
1 57432U 23105C   24199.24558009  .00002767  00000+0  21975-3 0  9998
2 57432  43.0023 284.6888 0001130 272.3562  87.7151 15.02546142 55202
STARLINK-30105          
1 57433U 23105D   24199.08393878  .00003759  00000+0  97246-4 0  9999
2 57433  42.9993 211.0393 0001446 272.4349  87.6342 15.40684673 56156
STARLINK-30102          
1 57434U 23105E   24199.23893245 -.00000231  00000+0 -20118-5 0  9999
2 57434  42.9962 284.6343 0000897 342.8840  17.1972 15.02542275 55224
STARLINK-30180          
1 57435U 23105F   24198.44453025  .00001822  00000+0  14991-3 0  9995
2 57435  43.0024 288.9930 0001517 275.5427  84.5242 15.02536905 55173
